[{"":"","name":"AHMEDABAD INSTITUTE OF TECHNOLOGY","code":"002","city":"ahmedabad","state":"Gujarat","pincode":"380060"},{"":"","name":"GOVERNMENT ENGINEERING COLLEGE","code":"021","city":"bhavnagar","state":"Gujarat","pincode":"364002"},{"":"","name":"INDUS INSTITUTE OF TECHNOLOGY & ENGINEERING","code":"025","city":"ahmedabad","state":"Gujarat","pincode":"382115"},{"":"","name":"L. D. COLLEGE OF ENGINEERING","code":"028","city":"ahmedabad","state":"Gujarat","pincode":"380015"},{"":"","name":"L. J. INSTITUTE OF ENGINEERING AND TECHNOLOGY","code":"032","city":"ahmedabad","state":"Gujarat","pincode":"382210"},{"":"","name":"NARNARAYAN SHASTRI INSTITUTE OF TECHNOLOGY","code":"034","city":"ahmedabad","state":"Gujarat","pincode":"382426"},{"":"","name":"SHANTILAL SHAH ENGINEERING COLLEGE","code":"043","city":"bhavnagar","state":"Gujarat","pincode":"364060"},{"":"","name":"C. U. SHAH COLLEGE OF ENGINEERING & TECHNOLOGY","code":"044","city":"surendranagar","state":"Gujarat","pincode":"363 030"},{"":"","name":"UNIVERSAL COLLEGE OF ENGINEERING & TECHNOLOGY","code":"046","city":"gandhinagar","state":"Gujarat","pincode":"382721"},{"":"","name":"CENTRAL INSTITUTE OF PLASTICS ENGINEERING & TECHNOLOGY","code":"052","city":"ahmedabad","state":"Gujarat","pincode":"382445"},{"":"","name":"SAL INSTITUTE OF TECHNOLOGY & ENGINEERING RESEARCH","code":"067","city":"ahmedabad","state":"Gujarat","pincode":"380060"},{"":"","name":"SILVER OAK COLLEGE OF ENGINEERING & TECHNOLOGY","code":"077","city":"ahmedabad","state":"Gujarat","pincode":"382481"},{"":"","name":"ASIA PACIFIC INSTITUTE OF HOTEL MANAGEMENT","code":"105","city":"ahmedabad","state":"Gujarat","pincode":"380013"},{"":"","name":"GUJARAT TECHNOLOGICAL UNIVERSITY PG SCHOOL","code":"106","city":"ahmedabad","state":"Gujarat","pincode":"382424"},{"":"","name":"SHRI J.M. SABVA INSTITUTE OF ENGINEERING & TECHNOLOGY","code":"107","city":"bhavnagar","state":"Gujarat","pincode":"364710"},{"":"","name":"AMIRAJ COLLEGE OF ENGINEERING & TECHNOLOGY","code":"108","city":"ahmedabad","state":"Gujarat","pincode":"382170"},{"":"","name":"SAL COLLEGE OF ENGINEERING","code":"113","city":"ahmedabad","state":"Gujarat","pincode":"380060"},{"":"","name":"SHREE PANDIT NATHULALJI VYAS TECHNICAL CAMPUS","code":"114","city":"surendranagar","state":"Gujarat","pincode":"363030"},{"":"","name":"D.A. DEGREE ENGINEERING & TECHNOLOGY","code":"118","city":"kheda","state":"Gujarat","pincode":"387002"},{"":"","name":"ADITYA SILVER OAK INSTITUTE OF TECHNOLOGY","code":"120","city":"ahmedabad","state":"Gujarat","pincode":"382481"},{"":"","name":"APOLLO INSTITUTE OF ENGINEERING & TECHNOLOGY","code":"121","city":"ahmedabad","state":"Gujarat","pincode":"382330"},{"":"","name":"SAL ENGINEERING & TECHNICAL INSTITUTE","code":"126","city":"ahmedabad","state":"Gujarat","pincode":"380060"},{"":"","name":"APOLLO INSTITUTE OF ENGINEERING","code":"128","city":"ahmedabad","state":"Gujarat","pincode":"382330"},{"":"","name":"GYANMANJARI INSTITUTE OF TECHNOLOGY","code":"129","city":"bhavnagar","state":"Gujarat","pincode":"364001"},{"":"","name":"Adani Institute of Infrastructure Engineering","code":"131","city":"ahmedabad","state":"Gujarat","pincode":"382421"},{"":"","name":"A-ONE PHARMACY COLLEGE","code":"206","city":"ahmedabad","state":"Gujarat","pincode":"382330"},{"":"","name":"ARIHANT SCHOOL OF PHARMACY & BIO-RESEARCH INSTITUTE","code":"208","city":"gandhinagar","state":"Gujarat","pincode":"382421"},{"":"","name":"AVANTIKA EDUCATION TRUST B.PHARMACY COLLEGE","code":"211","city":"surendranagar","state":"Gujarat","pincode":"363310"},{"":"","name":"C.U. SHAH COLLEGE OF PHARMACY & RESEARCH","code":"217","city":"surendranagar","state":"Gujarat","pincode":"363030"},{"":"","name":"HARI OM PHARMACY COLLEGE","code":"222","city":"kheda","state":"Gujarat","pincode":"388250"},{"":"","name":"K. B. RAVAL COLLEGE OF PHARMACY","code":"224","city":"gandhinagar","state":"Gujarat","pincode":"382423"},{"":"","name":"L. J. INSTITUTE OF PHARMACY","code":"227","city":"ahmedabad","state":"Gujarat","pincode":"382210"},{"":"","name":"L. M. COLLEGE OF PHARMACY","code":"228","city":"ahmedabad","state":"Gujarat","pincode":"380009"},{"":"","name":"SHRI SAMANVAY INSTITUTE OF PHARMACY","code":"256","city":"bhavnagar","state":"Gujarat","pincode":"364710"},{"":"","name":"SHREE SWAMINARAYAN COLLEGE OF PHARMACY","code":"258","city":"gandhinagar","state":"Gujarat","pincode":"382421"},{"":"","name":"SHREE SWAMINARAYAN SANSKAR PHARMACY COLLEGE","code":"260","city":"gandhinagar","state":"Gujarat","pincode":"382421"},{"":"","name":"SMT. NILABEN MANUBHAI PADALIA PHARMACY COLLEGE","code":"262","city":"ahmedabad","state":"Gujarat","pincode":"382210"},{"":"","name":"SAL INSTITUTE OF PHARMACY","code":"277","city":"ahmedabad","state":"Gujarat","pincode":"380060"},{"":"","name":"SHREE SAVARAM COLLEGE OF PHARMACEUTICAL EDU. & RES.","code":"280","city":"surendranagar","state":"Gujarat","pincode":"382745"},{"":"","name":"SMT. S. M. SHAH PHARMACY COLLEGE","code":"286","city":"kheda","state":"Gujarat","pincode":"387130"},{"":"","name":"L.J.SCHOOL OF ARCHITECTURE","code":"354","city":"ahmedabad","state":"Gujarat","pincode":"380054"},{"":"","name":"SAL SCHOOL OF ARCHITECTURE","code":"356","city":"ahmedabad","state":"Gujarat","pincode":"380060"},{"":"","name":"ALPHA INSTITUTE OF ARCHITECHURE","code":"358","city":"gandhinagar","state":"Gujarat","pincode":"382721"},{"":"","name":"Anant Institute of Planning (BPlan)","code":"381","city":"ahmedabad","state":"Gujarat","pincode":"382115"},{"":"","name":"L. M. COLLEGE OF PHARMACY (DIPLOMA)","code":"408","city":"ahmedabad","state":"Gujarat","pincode":"380009"},{"":"","name":"SHANTILAL SHAH PHARMACY COLLEGE","code":"414","city":"bhavnagar","state":"Gujarat","pincode":"364002"},{"":"","name":"Gujarat Technological University","code":"421","city":"ahmedabad","state":"Gujarat","pincode":"382424"},{"":"","name":"C. U. SHAH COLLEGE OF MASTER OF COMPUTER APPLICATION","code":"505","city":"wadhwan city","state":"Gujarat","pincode":"363030"},{"":"","name":"DALIA INSTITUTE OF MANAGEMENT (WOMEN'S COLLEGE)","code":"508","city":"kheda","state":"Gujarat","pincode":"387120"},{"":"","name":"GLS INSTITUTE OF COMPUTER TECHNOLOGY","code":"509","city":"ahmedabad","state":"Gujarat","pincode":"380006"},{"":"","name":"INDUS INSTITUTE OF TECHNOLOGY & ENGINEERING","code":"510","city":"ahmedabad","state":"Gujarat","pincode":"382115"},{"":"","name":"L. D. COLLEGE OF ENGINEERING (MCA)","code":"516","city":"ahmedabad","state":"Gujarat","pincode":"380015"},{"":"","name":"L. J. INSTITUTE OF COMPUTER APPLICATIONS","code":"517","city":"ahmedabad","state":"Gujarat","pincode":"382210"},{"":"","name":"L. J. INSTITUTE OF ENGINEERING AND TECHNOLOGY (MCA)","code":"518","city":"ahmedabad","state":"Gujarat","pincode":"382210"},{"":"","name":"L. J. INSTITUTE OF MANAGEMENT STUDIES (MCA)","code":"519","city":"ahmedabad","state":"Gujarat","pincode":"382210"},{"":"","name":"SARVODAY COLLEGE OF MANAGEMENT AND TECHNOLOGY","code":"532","city":"limbdi","state":"Gujarat","pincode":"363421"},{"":"","name":"SHRI CHIMANBHAI PATEL POST GRADUATE INSTITUTE OF COMPUTER APPLICATIONS","code":"535","city":"ahmedabad","state":"Gujarat","pincode":"380015"},{"":"","name":"R. B. INSTITUTE OF MANAGEMENT STUDIES","code":"549","city":"ahmedabad","state":"Gujarat","pincode":"382350"},{"":"","name":"L.J.INSTITUTE OF COMPUTER APPLICATIONS(SFI)-(SECOND SHIFT ) - NEW","code":"561","city":"ahmedabad","state":"Gujarat","pincode":"380054"},{"":"","name":"R.B.INSTITUTE OF MANAGEMENT STUDIES (SFI)-(SECOND SHIFT ) -NEW","code":"562","city":"ahmedabad","state":"Gujarat","pincode":"382345"},{"":"","name":"GOVERNMENT MCA COLLEGE (GIA)NEW","code":"569","city":"ahmedabad","state":"Gujarat","pincode":"380008"},{"":"","name":"C. U. SHAH GOVT. POLYTECHNIC","code":"609","city":"surendranagar","state":"Gujarat","pincode":"363035"},{"":"","name":"GOVERNMENT POLYTECHNIC FOR GIRLS","code":"614","city":"ahmedabad","state":"Gujarat","pincode":"380015"},{"":"","name":"GOVERNMENT POLYTECHNIC","code":"617","city":"ahmedabad","state":"Gujarat","pincode":"380015"},{"":"","name":"SWAMI KRISHNAJIVANDASJI INSTITUTE OF TECHNOLOGY","code":"632","city":"ahmedabad","state":"Gujarat","pincode":"382150"},{"":"","name":"L. J. POLYTECHNIC","code":"633","city":"ahmedabad","state":"Gujarat","pincode":"382210"},{"":"","name":"R. C. TECHNICAL INSTITUTE","code":"640","city":"ahmedabad","state":"Gujarat","pincode":"380060"},{"":"","name":"R. H. PATEL INSTITUTE OF TECHNOLOGY","code":"641","city":"kheda","state":"Gujarat","pincode":"387540"},{"":"","name":"SARVODAY POLYTECHNIC INSTITUTE","code":"643","city":"surendranagar","state":"Gujarat","pincode":"363421"},{"":"","name":"SHREE N. M. GOPANI POLYTECHNIC INSTITUTE","code":"646","city":"ahmedabad","state":"Gujarat","pincode":"363610"},{"":"","name":"SIR BHAVSINHJI POLYTECHNIC INSTITUTE","code":"649","city":"bhavnagar","state":"Gujarat","pincode":"364001"},{"":"","name":"TECHNICAL INSTITUTE OF DIPLOMA STUDIES","code":"652","city":"surendranagar","state":"Gujarat","pincode":"363030"},{"":"","name":"UMA INSTITUTE OF FIRE TECHNOLOGY","code":"660","city":"ahmedabad","state":"Gujarat","pincode":"380006"},{"":"","name":"DALIA INSTI. OF DIPLOMA STUDIES","code":"667","city":"kheda","state":"Gujarat","pincode":"387540"},{"":"","name":"D. A. DIPLOMA ENGINEERING & TECHNOLOGY","code":"682","city":"kheda","state":"Gujarat","pincode":"387130"},{"":"","name":"GROW MORE FACULTY OF DIPLOMA ENGINEERING","code":"684","city":"himmatnagar","state":"Gujarat","pincode":"383001"},{"":"","name":"ALPHA COLLEGE OF ENGINEERING & TECHNOLOGY","code":"694","city":"gandhinagar","state":"Gujarat","pincode":"382721"},{"":"","name":"SHRI J. M. SABVA INSTITUTE OF ENGG. & TECH","code":"698","city":"bhavnagar","state":"Gujarat","pincode":"364710"},{"":"","name":"AHMEDABAD INSTITUTE OF TECHNOLOGY","code":"701","city":"ahmedabad","state":"Gujarat","pincode":"380060"},{"":"","name":"C. U. SHAH COLLEGE OF ENGINEERING AND TECHNOLOGY","code":"707","city":"wadhwan city","state":"Gujarat","pincode":"363030"},{"":"","name":"DALIYA INSTITUTE OF MANAGEMENT","code":"710","city":"kheda","state":"Gujarat","pincode":"387540"},{"":"","name":"GLS INSTITUTE OF COMPUTER TECHNOLOGY","code":"714","city":"ahmedabad","state":"Gujarat","pincode":"380006"},{"":"","name":"L. J. INSTITUTE OF ENGINEERING AND TECHNOLOGY (MBA)","code":"728","city":"ahmedabad","state":"Gujarat","pincode":"382210"},{"":"","name":"L. J. INSTITUTE OF MANAGEMENT STUDIES","code":"729","city":"ahmedabad","state":"Gujarat","pincode":"382210"},{"":"","name":"L. J. INSTITUTE OF COMPUTER APPLICATIONS (MBA)","code":"730","city":"ahmedabad","state":"Gujarat","pincode":"382210"},{"":"","name":"N. R. INSTITUTE OF BUSINESS MANAGEMENT (GLS - MBA)","code":"735","city":"ahmedabad","state":"Gujarat","pincode":"380006"},{"":"","name":"R. B. INSTITUTE OF MANAGEMENT STUDIES","code":"746","city":"ahmedabad","state":"Gujarat","pincode":"382350"},{"":"","name":"SARVODAY VALLEY COLLEGE OF MANAGEMENT AND TECHNOLOGY","code":"757","city":"surendranagar","state":"Gujarat","pincode":"363421"},{"":"","name":"SHREE SAHAJANAND INSTITUTE OF MANAGEMENT","code":"761","city":"bhavnagar","state":"Gujarat","pincode":"364001"},{"":"","name":"SHREE SAMANVAY INSTITUTE OF MANAGEMENT AND BUSINESS ADMINISTRATION","code":"762","city":"bhavnagar","state":"Gujarat","pincode":"364710"},{"":"","name":"SHRI CHIMANBHAI PATEL INSTITUTE OF MANAGEMENT & RESEARCH","code":"768","city":"ahmedabad","state":"Gujarat","pincode":"380015"},{"":"","name":"SOM-LALIT INSTITUTE OF BUSINESS MANAGEMENT STUDIES","code":"778","city":"ahmedabad","state":"Gujarat","pincode":"380009"},{"":"","name":"DIVABA INSTITUTE OF MANAGEMENT & COMPUTER APPLICATION (DIMCA)","code":"790","city":"ahmedabad","state":"Gujarat","pincode":"382330"},{"":"","name":"L. J. INSTITUTE OF MANAGEMENT STUDIES -SECOND SHIFT","code":"796","city":"ahmedabad","state":"Gujarat","pincode":"382211"},{"":"","name":"R. H. PATEL INSTITUTE OF MANAGEMENT","code":"804","city":"kheda","state":"Gujarat","pincode":"387120"},{"":"","name":"SAL INSTITUTE OF MANAGEMENT (SFI)","code":"807","city":"ahmedabad","state":"Gujarat","pincode":"380060"},{"":"","name":"SHAYONA INSTITUTE OF BUSINESS MANAGEMENT","code":"820","city":"ahmedabad","state":"Gujarat","pincode":"380061"},{"":"","name":"SAL INSTITUTE OF MANAGEMENT (second shift)","code":"831","city":"ahmedabad","state":"Gujarat","pincode":"380060"},{"":"","name":"Shree Pandit Nathulalji Vyas Technical Campus","code":"835","city":"ahmedabad","state":"Gujarat","pincode":"363030"},{"":"","name":"EFFORTS POLYTECHNIC","code":"956","city":"kheda","state":"Gujarat","pincode":"388250"},{"":"","name":"SHREE PANDIT NATHULALJI VYAS TECHNICAL CAMPUS,","code":"962","city":"surendranagar","state":"Gujarat","pincode":"363030"},{"":"","name":"GOVT. POLYTECHNIC","code":"972","city":"kheda","state":"Gujarat","pincode":"387620"},{"":"","name":"Old GNLU Campus","code":"000","city":"gandhinagar","state":"Gujarat","pincode":"382027"},{"":"","name":"GANDHINAGAR INSTITUTE OF TECHNOLOGY","code":"012","city":"gandhinagar","state":"Gujarat","pincode":"382721"},{"":"","name":"GOVERNMENT ENGINEERING COLLEGE","code":"013","city":"gandhinagar","state":"Gujarat","pincode":"382028"},{"":"","name":"GOVERNMENT ENGINEERING COLLEGE","code":"016","city":"modasa","state":"Gujarat","pincode":"383315"},{"":"","name":"VISHWAKARMA GOVERNMENT ENGINEERING COLLEGE","code":"017","city":"ahmedabad","state":"Gujarat","pincode":"382424"},{"":"","name":"GOVERNMENT ENGINEERING COLLEGE","code":"022","city":"patan","state":"Gujarat","pincode":"384265"},{"":"","name":"HASMUKH GOSWAMI COLLEGE OF ENGINEERING","code":"024","city":"ahmedabad","state":"Gujarat","pincode":"382330"},{"":"","name":"KALOL INSTITUTE OF TECHNOLOGY & RESEARCH CENTRE","code":"026","city":"kalol","state":"Gujarat","pincode":"382721"},{"":"","name":"LALJIBHAI CHATURBHAI INSTITUTE OF TECHNOLOGY","code":"029","city":"mehsana","state":"Gujarat","pincode":"384120"},{"":"","name":"LEELABEN DASHRATHBHAI RAMDAS PATEL INSTITUTE OF TECHNOLOGY & RESEARCH","code":"030","city":"gandhinagar","state":"Gujarat","pincode":"382015"},{"":"","name":"S. P. B. PATEL ENGINEERING COLLEGE","code":"039","city":"mehsana","state":"Gujarat","pincode":"384435"},{"":"","name":"SANKALCHAND PATEL COLLEGE OF ENGINEERING","code":"040","city":"visnagar","state":"Gujarat","pincode":"384315"},{"":"","name":"ALPHA COLLEGE OF ENGINEERING & TECHNOLOGY","code":"051","city":"gandhinagar","state":"Gujarat","pincode":"382721"},{"":"","name":"FACULTY OF ENGINEERING, GROW MORE FOUNDATION GROUP OF INSTITUTIONS","code":"056","city":"sabarkantha","state":"Gujarat","pincode":"383001"},{"":"","name":"FACULTY OF ENGINEERING, SHREE SARASWATI EDU. SANSTHAN GROUP OF INSTITUTIONS","code":"058","city":"mehsana","state":"Gujarat","pincode":"382740"},{"":"","name":"GOVERNMENT ENGINEERING COLLEGE","code":"061","city":"banaskantha","state":"Gujarat","pincode":"380011"},{"":"","name":"GUJARAT INSTITUTE OF TECHNICAL STUDIES","code":"062","city":"sabarkantha","state":"Gujarat","pincode":"383205"},{"":"","name":"MERCHANT ENGINEERING COLLEGE","code":"065","city":"mehsana","state":"Gujarat","pincode":"384315"},{"":"","name":"SABAR INSTITUTE OF TECHNOLOGY FOR GIRLS","code":"066","city":"sabarkantha","state":"Gujarat","pincode":"383205"},{"":"","name":"SARDAR PATEL INSTITUTE OF TECHNOLOGY","code":"068","city":"mehsana","state":"Gujarat","pincode":"384380"},{"":"","name":"SHANKERSINH VAGHELA BAPU INSTITUTE OF TECHNOLOGY","code":"075","city":"gandhinagar","state":"Gujarat","pincode":"382650"},{"":"","name":"SMT. S. R. PATEL ENGINEERING COLLEGE","code":"078","city":"mehsana","state":"Gujarat","pincode":"384170"},{"":"","name":"VENUS INTERNATIONAL COLLEGE OF TECHNOLOGY","code":"081","city":"gandhinagar","state":"Gujarat","pincode":"382420"},{"":"","name":"SAMARTH COLLEGE OF ENGINEERING AND TECHNOLOGY","code":"088","city":"sabarkantha","state":"Gujarat","pincode":"383001"},{"":"","name":"TATVA INSTITUTE OF TECHNOLOGICAL STUDIES","code":"090","city":"sabarkantha","state":"Gujarat","pincode":"383315"},{"":"","name":"SHRI SATSANGI SAKETDHAM \"RAM ASHRAM\" GROUP OF INSTITUTIONS.","code":"091","city":"mehsana","state":"Gujarat","pincode":"382708"},{"":"","name":"ARRDEKTA INSTITUTE OF TECHNOLOGY","code":"093","city":"sabarkantha","state":"Gujarat","pincode":"383255"},{"":"","name":"HANSABA COLLEGE OF ENGINEERING & TECHNOLOGY","code":"098","city":"sidhpur","state":"Gujarat","pincode":"384151"},{"":"","name":"GUJARAT POWER ENGINEERING AND RESEARCH INSTITUTE (GPERI)","code":"104","city":"mehsana","state":"Gujarat","pincode":"382710"},{"":"","name":"SWAMINARAYAN COLLEGE OF ENGINEERING & TECHNOLOGY","code":"115","city":"kalol","state":"Gujarat","pincode":"382721"},{"":"","name":"SHREE SWAMINARAYAN INSTITUTE OF TECHNOLOGY","code":"125","city":"gandhinagar","state":"Gujarat","pincode":"382428"},{"":"","name":"State Institute of Hotel Management","code":"132","city":"patan","state":"Gujarat","pincode":"384151"},{"":"","name":"AMRUTA COLLEGE OF PHARMACY RESEARCH INSTITUTE","code":"204","city":"gandhinagar","state":"Gujarat","pincode":"382024"},{"":"","name":"APMC COLLEGE OF PHARMACEUTICAL EDUCATION AND RESEARCH","code":"207","city":"himatnagar","state":"Gujarat","pincode":"383001"},{"":"","name":"GITANJALI PHARMACY COLLEGE","code":"221","city":"sabarkantha","state":"Gujarat","pincode":"383215"},{"":"","name":"KALOL INSTITUTE OF PHARMACY","code":"225","city":"gandhinagar","state":"Gujarat","pincode":"382721"},{"":"","name":"M. P. PATEL COLLEGE OF PHARMACY","code":"229","city":"kapadvanj","state":"Gujarat","pincode":"387620"},{"":"","name":"NOOTAN PHARMACY COLLEGE","code":"232","city":"visnagar","state":"Gujarat","pincode":"384315"},{"":"","name":"RADHE SCHOOL OF PHARMACY","code":"238","city":"mehsana","state":"Gujarat","pincode":"382870"},{"":"","name":"B. S. PATEL PHARMACY COLLEGE","code":"240","city":"mehsana","state":"Gujarat","pincode":"384435"},{"":"","name":"SARASWATI INSTITUTE OF PHARMACEUTICAL SCIENCES","code":"242","city":"gandhinagar","state":"Gujarat","pincode":"382355"},{"":"","name":"SARASWATI SCHOOL OF PHARMACY","code":"243","city":"mehsana","state":"Gujarat","pincode":"384212"},{"":"","name":"SHRI SARVAJANIK PHARMACY COLLEGE","code":"245","city":"mehsana","state":"Gujarat","pincode":"384001"},{"":"","name":"SHARDA SCHOOL OF PHARMACY","code":"247","city":"gandhinagar","state":"Gujarat","pincode":"382610"},{"":"","name":"SHRI T. S. PATEL COLLEGE OF PHARMACY","code":"248","city":"sabarkantha","state":"Gujarat","pincode":"383325"},{"":"","name":"SHRI B. M. SHAH COLLEGE OF PHARMACEUTICAL EDUCATION AND RESEARCH","code":"252","city":"modasa","state":"Gujarat","pincode":"383315"},{"":"","name":"SHREE KRISHNA INSTITUTE OF PHARMACY","code":"255","city":"shankhalpur","state":"Gujarat","pincode":"384210"},{"":"","name":"SHRI SATSANGI SAKETDHAM \"RAM ASHRAM\" GROUP OF INSTITUTIONS.","code":"257","city":"mehsana","state":"Gujarat","pincode":"382730"},{"":"","name":"AMBAJI PHARMACY COLLEGE","code":"270","city":"mehsana","state":"Gujarat","pincode":"384330"},{"":"","name":"CHINMAY INSTITUTE OF PHARMACY","code":"271","city":"gandhinagar","state":"Gujarat","pincode":"382845"},{"":"","name":"I. K. PATEL COLLEGE OF PHARMACEUTICAL EDU. & RESEARCH","code":"273","city":"himatnagar","state":"Gujarat","pincode":"383001"},{"":"","name":"SHANKARSINH VAGHELA BAPU INSTITUTE OF PHARMACY","code":"278","city":"gandhinagar","state":"Gujarat","pincode":"382650"},{"":"","name":"SHARDA PHARMACY COLLEGE, PANSAR,","code":"279","city":"gandhinagar","state":"Gujarat","pincode":"382610"},{"":"","name":"SHREE MUKUNDLAL VITTHALDAS SHAH PHARMACY COLLEGE","code":"283","city":"sabarkantha","state":"Gujarat","pincode":"383315"},{"":"","name":"VENUS INSTITUTE OF DESIGN & ARCHITECTURE","code":"357","city":"gandhinagar","state":"Gujarat","pincode":"382422"},{"":"","name":"KALOL INTITUTE OF ARCHITECTURE & DESIGN","code":"382","city":"kalol","state":"Gujarat","pincode":"382721"},{"":"","name":"SHRI B. M. SHAH COLLEGE OF PHARMACY","code":"415","city":"sabarkantha","state":"Gujarat","pincode":"383315"},{"":"","name":"S. K. PATEL COLLEGE OF PHARMACEUTICAL EDU. & RES.(DIPLOMA)","code":"419","city":"mehsana","state":"Gujarat","pincode":"382711"},{"":"","name":"CHAUDHARI TECHNICAL INSTITUTE","code":"506","city":"gandhinagar","state":"Gujarat","pincode":"382007"},{"":"","name":"D. L. PATEL INSTITUTE OF MANAGEMENT AND TECHNOLOGY","code":"507","city":"sabarkantha","state":"Gujarat","pincode":"383001"},{"":"","name":"K. J. PATEL JEEVA DEEP EDUCATION TRUST -THE COLLEGE OF MCA","code":"512","city":"rampura","state":"Gujarat","pincode":"388260"},{"":"","name":"KALOL INSTITUTE OF MANAGEMENT(MCA)","code":"514","city":"kalol","state":"Gujarat","pincode":"382721"},{"":"","name":"L. C. INSTITUTE OF TECHNOLOGY","code":"515","city":"mehsana","state":"Gujarat","pincode":"384120"},{"":"","name":"LDRP INSTITUTE OF TECHNOLOGY & RESEARCH (MCA)","code":"521","city":"gandhinagar","state":"Gujarat","pincode":"382015"},{"":"","name":"MANISH INSTITUTE OF COMPUTER STUDIES","code":"524","city":"visnagar","state":"Gujarat","pincode":"384315"},{"":"","name":"S. V. INSTITUTE OF COMPUTER STUDIES","code":"528","city":"kadi","state":"Gujarat","pincode":"382715"},{"":"","name":"SANKALCHAND PATEL COLLEGE OF ENGINEERING","code":"529","city":"visnagar","state":"Gujarat","pincode":"384315"},{"":"","name":"SHREE SWAMINARAYAN INSTITUTE OF TECHNOLOGY","code":"533","city":"gandhinagar","state":"Gujarat","pincode":"382428"},{"":"","name":"SHRI JAIRAMBHAI PATEL INSTITUTE OF BUSINESS MANAGEMENT & COMPUTER APPLICATION (NICM)","code":"536","city":"gandhinagar","state":"Gujarat","pincode":"382007"},{"":"","name":"GROWMORE GROUP OF INSTITUTIONS","code":"545","city":"sabarkantha","state":"Gujarat","pincode":"383001"},{"":"","name":"K. B. RAVAL COLLEGE OF COMPUTER APPLICATION","code":"546","city":"gandhinagar","state":"Gujarat","pincode":"382423"},{"":"","name":"PATEL GROUP OF INSTITUTIONS","code":"548","city":"mehsana","state":"Gujarat","pincode":"384120"},{"":"","name":"SHREE MARUTINANDAN INSTITUTE OF COMPUTER AND MANAGEMENT STUDIES","code":"550","city":"mehsana","state":"Gujarat","pincode":"384315"},{"":"","name":"VJKM INSTITUTE OF MANAGEMENT AND COMPUTER STUDIES","code":"552","city":"mehsana","state":"Gujarat","pincode":"382705"},{"":"","name":"SMT. K. K. PATEL MBA/MCA COLLEGE","code":"555","city":"patan","state":"Gujarat","pincode":"384235"},{"":"","name":"SAMARTH COLLEGE OF COMPUTER APPLICATION","code":"556","city":"himatnagar","state":"Gujarat","pincode":"383001"},{"":"","name":"Global Institute of Management","code":"568","city":"gandhinagar","state":"Gujarat","pincode":"382640"},{"":"","name":"Oxford School of management","code":"571","city":"baliyasan","state":"Gujarat","pincode":"384435"},{"":"","name":"THE NEW PROGRESSIVE MCA COLLEGE","code":"575","city":"mehsana","state":"Gujarat","pincode":"384001"},{"":"","name":"EXCEL INSTITUTE OF DIPLOMA STUDIES","code":"613","city":"gandhinagar","state":"Gujarat","pincode":"382721"},{"":"","name":"GOVERNMENT POLYTECHNIC, GANDHINAGAR","code":"623","city":"gandhinagar","state":"Gujarat","pincode":"382044"},{"":"","name":"GOVERNMENT POLYTECHNIC, HIMATNAGAR","code":"624","city":"himatnagar","state":"Gujarat","pincode":"383001"},{"":"","name":"GOVERNMENT POLYTECHNIC, PALANPUR","code":"626","city":"palanpur","state":"Gujarat","pincode":"385001"},{"":"","name":"GOVERNMENT POLYTECHNIC, VADNAGAR","code":"628","city":"mehsana","state":"Gujarat","pincode":"384355"},{"":"","name":"K. D. POLYTECHNIC","code":"631","city":"patan","state":"Gujarat","pincode":"384265"},{"":"","name":"M. L. INSTITUTE OF DIPLOMA STUDIES","code":"635","city":"mehsana","state":"Gujarat","pincode":"384120"},{"":"","name":"MERCHANT POLYTECHNIC","code":"636","city":"mehsana","state":"Gujarat","pincode":"384001"},{"":"","name":"B. S. PATEL POLYTECHNIC","code":"644","city":"mehsana","state":"Gujarat","pincode":"382711"},{"":"","name":"SWAMI SACHCHIDANAND POLYTECHNIC COLLEGE","code":"650","city":"visnagar","state":"Gujarat","pincode":"384315"},{"":"","name":"VPMP POLYTECHNIC","code":"654","city":"gandhinagar","state":"Gujarat","pincode":"382015"},{"":"","name":"VED VYAS POLYTECHNIC","code":"661","city":"himatnagar","state":"Gujarat","pincode":"383001"},{"":"","name":"ATUL POLYTECHNIC","code":"664","city":"gandhinagar","state":"Gujarat","pincode":"382855"},{"":"","name":"NARAYANBHAI BHIKHABHAI PATEL POLYTECHNIC","code":"668","city":"mehsana","state":"Gujarat","pincode":"384380"},{"":"","name":"SAVITABEN DAHYABHAI PATEL POLYTECHNIC","code":"669","city":"mehsana","state":"Gujarat","pincode":"384380"},{"":"","name":"SWAMINARAYAN COLLEGE OF ENGINEERING","code":"671","city":"gandhinagar","state":"Gujarat","pincode":"382721"},{"":"","name":"F. D. (MUBIN) INSTITUTE OF ENGINEERING & TECHNOLOGY","code":"675","city":"gandhinagar","state":"Gujarat","pincode":"382308"},{"":"","name":"SHREE HARI POLYTECHNIC INSTITUTE","code":"677","city":"mehsana","state":"Gujarat","pincode":"382715"},{"":"","name":"SMT. R. S. PATEL INSTITUTE OF DIPLOMA ENGINEERING","code":"681","city":"patan","state":"Gujarat","pincode":"384235"},{"":"","name":"NAVSARJAN POLYTECHNIC","code":"687","city":"mehsana","state":"Gujarat","pincode":"384315"},{"":"","name":"TATVA INSTITUTE OF TECHNOLOGICAL STUDIES","code":"689","city":"modasa","state":"Gujarat","pincode":"383315"},{"":"","name":"SHRI SATSANGI SAKETDHAM `RAM ASHRAM` GROUP OF INSTITUTIONS FOR DIPLOMA ENGINEERING","code":"690","city":"vadsama","state":"Gujarat","pincode":"382730"},{"":"","name":"S. P. B. PATEL ENGINEERING COLLEGE","code":"693","city":"mehsana","state":"Gujarat","pincode":"384435"},{"":"","name":"ARRDEKTA INSTITUTE OF TECHNOLOGY","code":"696","city":"navi metral","state":"Gujarat","pincode":"383255"},{"":"","name":"CHAUDHARI TECHNICAL INSTITUTE","code":"708","city":"gandhinagar","state":"Gujarat","pincode":"382007"},{"":"","name":"D. L. PATEL INSTITUTE OF MANAGEMENT & TECHNOLOGY","code":"709","city":"himatnagar","state":"Gujarat","pincode":"383001"},{"":"","name":"FACULTY OF MANAGEMENT STUDIES (GROW MORE FOUNDATION)","code":"713","city":"himmatnagar","state":"Gujarat","pincode":"384120"},{"":"","name":"GANDHINAGAR INSTITUTE OF TECHNOLOGY","code":"715","city":"gandhinagar","state":"Gujarat","pincode":"382721"},{"":"","name":"GOLDEN JUBILEE INSTITUTE OF MANAGEMENT AND TECHNOLOGY","code":"717","city":"sidhpur","state":"Gujarat","pincode":"384151"},{"":"","name":"HASMUKH GOSWAMI COLLEGE OF ENGINEERING","code":"718","city":"ahmedabad","state":"Gujarat","pincode":"382330"},{"":"","name":"INDUS INSTITUTE OF TECHNOLOGY & ENGINEERING","code":"720","city":"ahmedabad","state":"Gujarat","pincode":"382115"},{"":"","name":"SHRI SATSANGI SAKETDHAM \"RAM ASHRAM\" GROUP OF INSTITUTIONS.","code":"721","city":"mehsana","state":"Gujarat","pincode":"382708"},{"":"","name":"KALOL INSTITUTE OF MANAGEMENT","code":"725","city":"kalol","state":"Gujarat","pincode":"382721"},{"":"","name":"LDRP INSTITUTE OF TECHNOLOGY & RESEARCH (MBA)","code":"732","city":"gandhinagar","state":"Gujarat","pincode":"382015"},{"":"","name":"MANISH INSTITUTE OF MANAGEMENT","code":"739","city":"visnagar","state":"Gujarat","pincode":"384315"},{"":"","name":"S. V. INSTITUTE OF MANAGEMENT","code":"749","city":"mehsana","state":"Gujarat","pincode":"382715"},{"":"","name":"SABAR INSTITUTE OF MANAGEMENT","code":"751","city":"sabarkantha","state":"Gujarat","pincode":"383205"},{"":"","name":"SANKALCHAND PATEL COLLEGE OF ENGINEERING","code":"752","city":"visnagar","state":"Gujarat","pincode":"384315"},{"":"","name":"SAMARTH INSTITUTE OF MANAGEMENT","code":"753","city":"himmatnagar","state":"Gujarat","pincode":"383120"},{"":"","name":"SARDAR INSTITUTE OF MANAGEMENT AND COMPUTER APPLICATION","code":"754","city":"mehsana","state":"Gujarat","pincode":"382870"},{"":"","name":"SHREE SARSWATI EDUCATION SANSTHAN GROUP OF INSTITUTIONS","code":"764","city":"mehsana","state":"Gujarat","pincode":"382740"},{"":"","name":"SHREE T. S. PATEL COLLEGE OF MBA","code":"765","city":"sabarkantha","state":"Gujarat","pincode":"383325"},{"":"","name":"SHRI JAIRAMBHAI PATEL INSTITUTE OF BUSINESS MANAGEMENT AND COMPUTER APPLICATION","code":"769","city":"gandhinagar","state":"Gujarat","pincode":"382007"},{"":"","name":"SPB PATEL ENGINEERING COLLEGE","code":"779","city":"mehsana","state":"Gujarat","pincode":"384435"},{"":"","name":"SWAMI VIVEKANAND MBA COLLEGE","code":"783","city":"gandhinagar","state":"Gujarat","pincode":"382855"},{"":"","name":"UNIVERSAL COLLEGE OF ENGINEERING & TECHNOLOGY","code":"785","city":"gandhinagar","state":"Gujarat","pincode":"382721"},{"":"","name":"GLOBAL INSTITUTE OF MANAGEMENT","code":"794","city":"gandhinagar","state":"Gujarat","pincode":"382640"},{"":"","name":"OXFORD SCHOOL OF MANAGEMENT","code":"800","city":"mehsana","state":"Gujarat","pincode":"382732"},{"":"","name":"PATEL GROUP OF INSTITUTIONS","code":"803","city":"mehsana","state":"Gujarat","pincode":"384120"},{"":"","name":"SARDAR PATEL INSTITUTE OF MANAGEMENT","code":"808","city":"patan","state":"Gujarat","pincode":"384245"},{"":"","name":"VJKM INSTITUTE OF MANAGEMENT AND COMPUTER STUDIES","code":"816","city":"mehsana","state":"Gujarat","pincode":"382705"},{"":"","name":"SMT. K. K. PATEL MBA / MCA COLLEGE","code":"818","city":"patan","state":"Gujarat","pincode":"384235"},{"":"","name":"Shri Jairambhai Patel institute of Business Management & Computer Applications (Second Shift)","code":"830","city":"gandhinagar","state":"Gujarat","pincode":"382007"},{"":"","name":"Oakbrook Business School","code":"832","city":"gandhinagar","state":"Gujarat","pincode":"382421"},{"":"","name":"JASODABA POLYTECHNIC INSTITUTE","code":"952","city":"sidhpur","state":"Gujarat","pincode":"384151"},{"":"","name":"NAVSARJAN SCHOOL OF TECHNOLOGY","code":"960","city":"gandhinagar","state":"Gujarat","pincode":"382610"},{"":"","name":"SHANKERSINH VAGHELA BAPU INSTITUTE OF TECH.,","code":"965","city":"gandhinagar","state":"Gujarat","pincode":"382650"},{"":"","name":"UNIVERSAL COLLEGE OF ENGG. AND TECH.,","code":"966","city":"kalol","state":"Gujarat","pincode":"382721"},{"":"","name":"GUJARAT INSTITUTE OF TECHNICAL STUDIES,","code":"967","city":"tahsil prantij","state":"Gujarat","pincode":"383120"},{"":"","name":"ASIAN INSTITUTE OF TECHNOLOGY","code":"969","city":"sabarkantha","state":"Gujarat","pincode":"383235"},{"":"","name":"SHREE VASUDEVBHAI AND KANTILAL PATEL INSTITUTE OF ENGINEERING","code":"971","city":"mehsana","state":"Gujarat","pincode":"382715"},{"":"","name":"JAIN INSTITUTE OF TEHCNOLOGY- DIPLOMA,","code":"979","city":"gandhinagar","state":"Gujarat","pincode":"382422"},{"":"","name":"Dr.Natubhai.P.Patel Polytechnic","code":"984","city":"mehsana","state":"Gujarat","pincode":"384421"},{"":"","name":"Shree Swaminarayan Polytechnic","code":"986","city":"gandhinagar","state":"Gujarat","pincode":"382022"},{"":"","name":"A. D. PATEL INSTITUTE OF TECHNOLOGY","code":"001","city":"anand","state":"Gujarat","pincode":"388121"},{"":"","name":"BABARIA INSTITUTE OF TECHNOLOGY","code":"005","city":"vadodara","state":"Gujarat","pincode":"381240"},{"":"","name":"BIRLA VISHVAKARMA MAHAVIDYALAYA","code":"007","city":"anand","state":"Gujarat","pincode":"388120"},{"":"","name":"BIRLA VISHVAKARMA MAHAVIDYALAYA","code":"008","city":"anand","state":"Gujarat","pincode":"388120"},{"":"","name":"CHAROTAR INSTITUTE OF TECHNOLOGY","code":"010","city":"anand","state":"Gujarat","pincode":"388421"},{"":"","name":"G. H. PATEL COLLEGE OF ENGINEERING & TECHNOLOGY","code":"011","city":"anand","state":"Gujarat","pincode":"388120"},{"":"","name":"GOVERNMENT ENGINEERING COLLEGE","code":"018","city":"dahod","state":"Gujarat","pincode":"389151"},{"":"","name":"PARUL INSTITUTE OF ENGINEERING & TECHNOLOGY","code":"037","city":"vadodara","state":"Gujarat","pincode":"391760"},{"":"","name":"SARDAR VALLABHBHAI PATEL INSTITUTE OF TECHNOLOGY","code":"041","city":"anand","state":"Gujarat","pincode":"388306"},{"":"","name":"SIGMA INSTITUTE OF ENGINEERING","code":"050","city":"vadodara","state":"Gujarat","pincode":"390019"},{"":"","name":"ENGINEERING COLLEGE","code":"055","city":"panchmahals","state":"Gujarat","pincode":"389713"},{"":"","name":"GOVERNMENT ENGINEERING COLLEGE","code":"060","city":"godhara","state":"Gujarat","pincode":"389001"},{"":"","name":"MADHUBEN AND BHANUBHAI PATEL WOMEN INSTITUTE OF ENGINEERING FOR STUDIES AND RESEARCH IN COMPUTER AND COMMUNICATION TECHNOLOGY","code":"063","city":"anand","state":"Gujarat","pincode":"388121"},{"":"","name":"K. J. INSTITUTE OF ENGINEERING AND TECHNOLOGY","code":"064","city":"vadodara","state":"Gujarat","pincode":"391770"},{"":"","name":"VADODARA INSTITUTE OF ENGINEERING","code":"080","city":"vadodara","state":"Gujarat","pincode":"391510"},{"":"","name":"DR. JIVRAJ MEHTA INSTITUTE OF TECHNOLOGY","code":"082","city":"anand","state":"Gujarat","pincode":"388340"},{"":"","name":"PARUL INSTITUTE OF TECHNOLOGY","code":"087","city":"vadodara","state":"Gujarat","pincode":"391760"},{"":"","name":"INSTITUTE OF TECHNOLOGY & MANAGEMENT, UNIVERSE TECHNICAL CAMPUS","code":"095","city":"vadodara","state":"Gujarat","pincode":"390510"},{"":"","name":"LEADS INSTITUTE OF TECHNOLOGY & ENGINEERING","code":"100","city":"bharuch","state":"Gujarat","pincode":"392035"},{"":"","name":"IPCOWALA INSTITUTE OF ENGINEERING & TECHNOLOGY","code":"101","city":"dharmaj.","state":"Gujarat","pincode":"388430"},{"":"","name":"OM INSTITUTE OF TECHNOLOGY","code":"103","city":"panchmahals","state":"Gujarat","pincode":"389210"},{"":"","name":"NEOTECH INSTITUTE OF TECHNOLOGY","code":"117","city":"vadodara","state":"Gujarat","pincode":"390022"},{"":"","name":"ELECTRONICS & MECHANICAL ENGINEERING SCHOOL","code":"119","city":"vadodara","state":"Gujarat","pincode":"390008"},{"":"","name":"SARDAR PATEL COLLEGE OF ENGINEERING","code":"124","city":"anand","state":"Gujarat","pincode":"388315"},{"":"","name":"Arc Institute Of Technology","code":"127","city":"vadodara","state":"Gujarat","pincode":"391440"},{"":"","name":"A. R. COLLEGE OF PHARMACY & G. H. PATEL INSTITUTE OF PHARMACY","code":"201","city":"anand","state":"Gujarat","pincode":"388120"},{"":"","name":"A. R. COLLEGE OF PHARMACY & G. H. PATEL INSTITUTE OF PHARMACY","code":"202","city":"anand","state":"Gujarat","pincode":"388120"},{"":"","name":"ANAND PHARMACY COLLEGE","code":"205","city":"anand","state":"Gujarat","pincode":"388001"},{"":"","name":"ATMIYA PHARMACY COLLEGE","code":"209","city":"vadodara","state":"Gujarat","pincode":"391330"},{"":"","name":"BABARIA INSTITUTE OF PHARMACY","code":"213","city":"vadodara","state":"Gujarat","pincode":"391240"},{"":"","name":"PARUL INSTITUTE OF PHARMACY AND RESEARCH","code":"214","city":"vadodara","state":"Gujarat","pincode":"391760"},{"":"","name":"RAMANBHAI PATEL COLLEGE OF PHARMACY","code":"218","city":"anand","state":"Gujarat","pincode":"388421"},{"":"","name":"DEGREE PHARMACY COLLEGE","code":"219","city":"panchmahals","state":"Gujarat","pincode":"389210"},{"":"","name":"B. PHARMACY COLLEGE","code":"220","city":"panchmahals","state":"Gujarat","pincode":"389713"},{"":"","name":"INDUKAKA IPCOWALA COLLEGE OF PHARMACY","code":"223","city":"anand","state":"Gujarat","pincode":"388121"},{"":"","name":"L.B.RAO INSTITUTE OF PHARMACEUTICAL EDUCATION AND RESEARCH","code":"226","city":"anand","state":"Gujarat","pincode":"388620"},{"":"","name":"PARUL INSTITUTE OF PHARMACY","code":"233","city":"vadodara","state":"Gujarat","pincode":"391760"},{"":"","name":"PIONEER PHARMACY DEGREE COLLEGE","code":"235","city":"vadodara","state":"Gujarat","pincode":"390019"},{"":"","name":"PRASHANT MITTAL KANSARA PHARMACY COLLEGE","code":"236","city":"vadodara","state":"Gujarat","pincode":"391760"},{"":"","name":"INDUBHAI PATEL COLLEGE OF PHARMACY AND RESEARCH CENTRE","code":"241","city":"anand","state":"Gujarat","pincode":"388430"},{"":"","name":"SARDAR PATEL COLLEGE OF PHARMACY","code":"244","city":"anand","state":"Gujarat","pincode":"388315"},{"":"","name":"SAT KAIVAL COLLEGE OF PHARMACY","code":"246","city":"anand","state":"Gujarat","pincode":"388365"},{"":"","name":"SHREE SWAMINARAYAN PHARMACY COLLEGE","code":"259","city":"narmada","state":"Gujarat","pincode":"393151"},{"":"","name":"SIGMA INSTITUTE OF PHARMACY","code":"261","city":"vadodara","state":"Gujarat","pincode":"390019"},{"":"","name":"SHANTABEN MANUBHAI PATEL INSTITUTE OF STUDIES AND RESEARCH IN PHARMACY","code":"272","city":"anand","state":"Gujarat","pincode":"388121"},{"":"","name":"R. H. PATEL COLLEGE OF PHARMACY","code":"275","city":"anand","state":"Gujarat","pincode":"388350"},{"":"","name":"SARDAR PATEL COLLEGE OF PHARMACY FOR WOMEN","code":"276","city":"anand","state":"Gujarat","pincode":"388315"},{"":"","name":"SHIVAM PHARMACEUTICAL STUDIES & RESEARCH CENTER","code":"282","city":"anand","state":"Gujarat","pincode":"388326"},{"":"","name":"PARUL INSTITUTE OF ARCHITECTURE AND RESEARCH","code":"351","city":"vadodara","state":"Gujarat","pincode":"391760"},{"":"","name":"ITM SCHOOL OF ARCHITECTURE ART AND DESIGN (ITM)","code":"352","city":"vadodara","state":"Gujarat","pincode":"391510"},{"":"","name":"A. R. COLLEGE OF PHARMACY & G. H. PATEL INSTITUTE OF PHARMACY","code":"401","city":"anand","state":"Gujarat","pincode":"388120"},{"":"","name":"DIPLOMA PHARMACY COLLEGE","code":"405","city":"panchmahals","state":"Gujarat","pincode":"389713"},{"":"","name":"M. N. COLLEGE OF PHARMACY","code":"409","city":"anand","state":"Gujarat","pincode":"388620"},{"":"","name":"JAYSHANKAR MAHASHANKAR PANDYA(SAVLIWALA) DIPLOMA PHARMACY COLLEGE","code":"411","city":"vadodara","state":"Gujarat","pincode":"391760"},{"":"","name":"J.S.S.S.S.S. DIPLOMA PHARMACY COLLEGE","code":"412","city":"anand","state":"Gujarat","pincode":"388430"},{"":"","name":"B. D. RAO DIPLOMA PHARMACY COLLEGE (ONLY FOR GIRLS)","code":"418","city":"anand","state":"Gujarat","pincode":"388620"},{"":"","name":"ANAND INSTITUTE OF INFORMATION SCIENCE,","code":"501","city":"anand","state":"Gujarat","pincode":"388001"},{"":"","name":"INSTITUTE OF SCIENCE & TECHNOLOGY FOR ADVANCED STUDIES & RESEARCH(ISTAR)","code":"511","city":"anand","state":"Gujarat","pincode":"388120"},{"":"","name":"K. P. PATEL SCHOOL OF MANAGEMENT AND COMPUTER STUDIES","code":"513","city":"kheda","state":"Gujarat","pincode":"387620"},{"":"","name":"PARUL INSTITUTE OF ENGINEERING & TECHNOLOGY","code":"525","city":"vadodara","state":"Gujarat","pincode":"391760"},{"":"","name":"SARDAR VALLABHBHAI PATEL INSTITUTE OF TECHNOLOGY","code":"530","city":"anand","state":"Gujarat","pincode":"388306"},{"":"","name":"PARUL INSTITUTE OF ENGINEERING & TECHNOLOGY-MCA PROGRAMME (SFI)","code":"560","city":"vadodara","state":"Gujarat","pincode":"391760"},{"":"","name":"INSTITUTE OF TECHNOLOGY AND MANAGEMENT UNIVERSE-TECHNICAL CAMPUS","code":"566","city":"vadodara","state":"Gujarat","pincode":"391760"},{"":"","name":"B.R.PATEL INSTITUTE OF COMPUTER APPLICATIONS","code":"567","city":"anand","state":"Gujarat","pincode":"388563"},{"":"","name":"INSTITUTE OF TECHNOLOGY AND MANAGEMENT UNIVERSE-TECHNICAL CAMPUS","code":"570","city":"vadodara","state":"Gujarat","pincode":"391510"},{"":"","name":"Shivam institute of Computer Technology","code":"572","city":"vadodara","state":"Gujarat","pincode":"388326"},{"":"","name":"SARDAR PATEL COLLEGER OF ADMINISTRATION & MANAGEMENT","code":"574","city":"anand","state":"Gujarat","pincode":"388315"},{"":"","name":"B AND B INSTITUTE OF TECHNOLOGY - GOVT","code":"604","city":"anand","state":"Gujarat","pincode":"388120"},{"":"","name":"B AND B INSTITUTE OF TECHNOLOGY - SFI","code":"605","city":"anand","state":"Gujarat","pincode":"388120"},{"":"","name":"BUTLER POLYTECHNIC","code":"606","city":"vadodara","state":"Gujarat","pincode":"390008"},{"":"","name":"GOVERNMENT POLYTECHNIC","code":"618","city":"panchmahals","state":"Gujarat","pincode":"389001"},{"":"","name":"GOVERNMENT POLYTECHNIC","code":"622","city":"vadodara","state":"Gujarat","pincode":"391165"},{"":"","name":"GOVERNMENT POLYTECHNIC","code":"630","city":"dahod","state":"Gujarat","pincode":"389151"},{"":"","name":"PARUL INSTITUTE OF ENGINEERING & TECHNOLOGY (DIPLOMA STUDIES)","code":"638","city":"vadodara","state":"Gujarat","pincode":"391760"},{"":"","name":"PARUL POLYTECHNIC INSTITUTE","code":"639","city":"vadodara","state":"Gujarat","pincode":"391760"},{"":"","name":"R. M. S. POLYTECHNIC","code":"642","city":"vadodara","state":"Gujarat","pincode":"390010"},{"":"","name":"SIGMA INSTITUTE OF TECHNOLOGY & ENGINEERING","code":"648","city":"vadodara","state":"Gujarat","pincode":"390019"},{"":"","name":"S. B. POLYTECHNIC","code":"666","city":"vadodara","state":"Gujarat","pincode":"391770"},{"":"","name":"H. B. PATEL INSTITUTE OF DIPLOMA ENGG. & TECHNOLOGY","code":"676","city":"lunavada","state":"Gujarat","pincode":"389230"},{"":"","name":"BALASINOR COLLEGE OF POLYTECHNIC","code":"678","city":"kheda","state":"Gujarat","pincode":"388235"},{"":"","name":"IMAGE ENGG. & TECHNICAL INSTITUTE","code":"683","city":"kheda","state":"Gujarat","pincode":"387530"},{"":"","name":"ANAND INSTITUTE OF MANAGEMENT","code":"702","city":"anand","state":"Gujarat","pincode":"388001"},{"":"","name":"C. K. SHAH VIJAPURWALA INSTITUTE OF MANAGEMENT","code":"705","city":"vadodara","state":"Gujarat","pincode":"390004"},{"":"","name":"PARUL INSTITUTE OF MANAGEMENT & RESEARCH","code":"711","city":"vadodara","state":"Gujarat","pincode":"391760"},{"":"","name":"INDU MANAGEMENT INSTITUTE","code":"719","city":"vadodara","state":"Gujarat","pincode":"391300"},{"":"","name":"K. P. PATEL SCHOOL OF MANAGEMENT & COMPUTER STUDIES","code":"724","city":"kapadwanj","state":"Gujarat","pincode":"387620"},{"":"","name":"LATE SMT. SHARDABEN GHANSHYAMBHAI PATEL INSTITUTE OF MANAGEMENT STUDIES","code":"733","city":"dharmaj","state":"Gujarat","pincode":"388430"},{"":"","name":"PARUL INSTITUTE OF ENGINEERING & TECHNOLOGY","code":"742","city":"vadodara","state":"Gujarat","pincode":"391760"},{"":"","name":"RAJIV GANDHI COLLEGE OF MANAGEMENT","code":"747","city":"kheda","state":"Gujarat","pincode":"388255"},{"":"","name":"SARDAR PATEL COLLEGE OF ADMINISTRATION & MANAGEMENT","code":"755","city":"anand","state":"Gujarat","pincode":"318315"},{"":"","name":"SARVODAY CHARITABLE MBA COLLEGE","code":"756","city":"godhara","state":"Gujarat","pincode":"389001"},{"":"","name":"SIGMA INSTITUTE OF ENGINEERING","code":"775","city":"vadodara","state":"Gujarat","pincode":"390019"},{"":"","name":"SIGMA INSTITUTE OF MANAGEMENT STUDIES","code":"776","city":"vadodara","state":"Gujarat","pincode":"391760"},{"":"","name":"J. K. PATEL INSTITUTE OF MANAGEMENT","code":"792","city":"vadodara","state":"Gujarat","pincode":"391760"},{"":"","name":"J. H. PATEL COLLEGE OF MANAGEMENT & TECHNOLOGY","code":"795","city":"anand","state":"Gujarat","pincode":"388350"},{"":"","name":"PARUL INSTITUTE OF MANAGEMENT","code":"802","city":"vadodara","state":"Gujarat","pincode":"391760"},{"":"","name":"INSTITUTE OF TECHNOLOGY & MANAGEMENT UNIVERSE TECHNICAL CAMPUS","code":"822","city":"vadodara","state":"Gujarat","pincode":"390510"},{"":"","name":"Shivam institute of management","code":"829","city":"anand","state":"Gujarat","pincode":"388326"},{"":"","name":"SANSKRITI SCHOOL OF BUSINESS - EVENING","code":"833","city":"vadodara","state":"Gujarat","pincode":"390022"},{"":"","name":"C. K. SHAH VIJAPURWALA INSTITUTE OF MANAGEMENT, - 2ND SHIFT","code":"834","city":"vadodara","state":"Gujarat","pincode":"390004"},{"":"","name":"PARUL INSTITUTE OF HOTEL MANAGEMENT AND CATERING TECHNOLOGY (DIPLOMA STUDIES)","code":"891","city":"vadodara","state":"Gujarat","pincode":"391760"},{"":"","name":"GUJARAT INSTITUTE OF HOTEL MANAGEMENT","code":"892","city":"vadodara","state":"Gujarat","pincode":"390020"},{"":"","name":"IPCOWALA INSTITUTE OF ENGG AND TECHNOLOGY","code":"951","city":"anand","state":"Gujarat","pincode":"388430"},{"":"","name":"SANSKAR INSTITUTE OF TECHNOLOGY (DIPLOMA ENGG.)","code":"953","city":"vadodara","state":"Gujarat","pincode":"391760"},{"":"","name":"K. J. INSTITUTE OF ENGINEERING & TECHNOLOGY","code":"957","city":"vadodara","state":"Gujarat","pincode":"391770"},{"":"","name":"ENGINEERING  COLLEGE","code":"958","city":"panchmahals","state":"Gujarat","pincode":"388713"},{"":"","name":"Neotech Faculty of Diploma Engg.","code":"959","city":"vadodara","state":"Gujarat","pincode":"390022"},{"":"","name":"LEADS INSTITUTE OF TECHNOLOGY & ENGINEERING,","code":"964","city":"bharuch","state":"Gujarat","pincode":"393110"},{"":"","name":"ITM SCHOOL OF ARCHITECTURE ART AND DESIGN (ITM)","code":"982","city":"vadodara","state":"Gujarat","pincode":"391510"},{"":"","name":"ATMIYA INSTITUTE OF TECHNOLOGY & SCIENCE","code":"003","city":"rajkot","state":"Gujarat","pincode":"360005"},{"":"","name":"B. H. GARDI COLLEGE OF ENGINEERING & TECHNOLOGY","code":"004","city":"rajkot","state":"Gujarat","pincode":"360001"},{"":"","name":"GOVERNMENT ENGINEERING COLLEGE","code":"015","city":"bhuj","state":"Gujarat","pincode":"370001"},{"":"","name":"GOVERNMENT ENGINEERING COLLEGE","code":"020","city":"rajkot","state":"Gujarat","pincode":"360005"},{"":"","name":"KANKESHWARIDEVI INSTITUTE OF TECHNOLOGY","code":"027","city":"jamnagar","state":"Gujarat","pincode":"361012"},{"":"","name":"LUKHDHIRJI ENGINEERING COLLEGE","code":"031","city":"rajkot","state":"Gujarat","pincode":"363642"},{"":"","name":"NOBLE GROUP OF INSTITUTIONS","code":"035","city":"junagadh","state":"Gujarat","pincode":"362310"},{"":"","name":"Sanjaybhai Rajguru College of Engineering","code":"036","city":"rajkot","state":"Gujarat","pincode":"360030"},{"":"","name":"R. K. COLLEGE OF ENGINEERING AND TECHNOLOGY","code":"038","city":"rajkot","state":"Gujarat","pincode":"360020"},{"":"","name":"VYAVASAYI VIDYA PRATISHTHAN'S SANCH. COLLEGE OF ENGINEERING","code":"047","city":"rajkot","state":"Gujarat","pincode":"360005"},{"":"","name":"DARSHAN INSTITUTE OF ENGINEERING & TECHNOLOGY","code":"054","city":"rajkot","state":"Gujarat","pincode":"363650"},{"":"","name":"MARWADI EDUCATION FOUNDATION'S GROUP OF INSTITUTIONS","code":"057","city":"rajkot","state":"Gujarat","pincode":"360003"},{"":"","name":"G. K. BHARAD INSTITUTE OF ENGINEERING","code":"059","city":"rajkot","state":"Gujarat","pincode":"362020"},{"":"","name":"TAKSHSHILA COLLEGE OF ENGINEERING & TECHNOLOGY","code":"079","city":"rajkot","state":"Gujarat","pincode":"360110"},{"":"","name":"DR. SUBHASH TECHNICAL CAMPUS","code":"083","city":"junagadh","state":"Gujarat","pincode":"362001"},{"":"","name":"HJD INSTITUTE OF TECHNICAL EDUCATION AND RESEARCH","code":"085","city":"kera","state":"Gujarat","pincode":"370430"},{"":"","name":"SHRI LABHUBHAI TRIVEDI INSTITUTE OF ENGINEERING & TECHNOLOGY","code":"089","city":"rajkot","state":"Gujarat","pincode":"360005"},{"":"","name":"ARHAM VEERAYATAN INSTITUTE OF ENGINEERING, TECHNOLOGY & RESEARCH","code":"092","city":"kutch","state":"Gujarat","pincode":"370460"},{"":"","name":"ARUN MUCHHALA ENGINEERING COLLEGE","code":"096","city":"amreli","state":"Gujarat","pincode":"365640"},{"":"","name":"MARWADI EDUCATION FOUNDATION'S GROUP OF INSTITUTIONS-FACULTY OF TECHNOLOGY","code":"097","city":"rajkot","state":"Gujarat","pincode":"360003"},{"":"","name":"OM ENGINEERING COLLEGE","code":"102","city":"junagadh","state":"Gujarat","pincode":"362310"},{"":"","name":"BALAJI ENGINEERING COLLEGE","code":"109","city":"junagadh","state":"Gujarat","pincode":"362037"},{"":"","name":"MARWADI EDUCATION FOUNDATION - FACULTY OF PG STUDIES & RES. IN ENGG. & TECH.","code":"116","city":"rajkot","state":"Gujarat","pincode":"360003"},{"":"","name":"AARYA-VEER COLLEGE OF ENGINEERING & TECHNOLOGY","code":"122","city":"rajkot","state":"Gujarat","pincode":"360003"},{"":"","name":"Smt. Shantaben Haribhai Gajera Engineering College","code":"130","city":"rajkot","state":"Gujarat","pincode":"365601"},{"":"","name":"AKSHAR-PREET INSTITUTE OF PHARMACY","code":"203","city":"jamnagar","state":"Gujarat","pincode":"361006"},{"":"","name":"ATMIYA INSTITUTE OF PHARMACY","code":"210","city":"rajkot","state":"Gujarat","pincode":"360005"},{"":"","name":"B. K. MODI GOVERNMENT PHARMACY COLLEGE","code":"212","city":"rajkot","state":"Gujarat","pincode":"360003"},{"":"","name":"N. R. VEKARIA INSTITUTE OF PHARMACY","code":"231","city":"junagadh","state":"Gujarat","pincode":"362001"},{"":"","name":"K.N.V PHARMACY COLLEGE","code":"234","city":"rajkot","state":"Gujarat","pincode":"360021"},{"":"","name":"R. K. COLLEGE OF PHARMACY","code":"237","city":"rajkot","state":"Gujarat","pincode":"360020"},{"":"","name":"S. S. INSTITUTE OF PHARMACEUTICAL EDUCATION & RESEARCH","code":"249","city":"rajkot","state":"Gujarat","pincode":"363650"},{"":"","name":"SHREE H. N. SHUKLA INSTITUTE OF PHARMACEUTICAL EDUCATION & RESEARCH","code":"250","city":"rajkot","state":"Gujarat","pincode":"360002"},{"":"","name":"SMT. CHAMPABEN VASANTBHAI GAJERA PHARMACY MAHILA COLLEGE","code":"251","city":"amreli","state":"Gujarat","pincode":"365601"},{"":"","name":"K. V. VIRANI INSTITUTE OF PHARMACY AND RESEARCH CENTRE","code":"253","city":"amreli","state":"Gujarat","pincode":"364522"},{"":"","name":"SMT. R. D. GARDI B. PHARMACY COLLEGE","code":"263","city":"rajkot","state":"Gujarat","pincode":"360110"},{"":"","name":"SURYABEN JASHUBHAI THAKKAR PHARMACY COLLEGE","code":"264","city":"rajkot","state":"Gujarat","pincode":"360005"},{"":"","name":"V. B. MANVAR PHARMACY COLLEGE","code":"266","city":"rajkot","state":"Gujarat","pincode":"360440"},{"":"","name":"VEERAYATAN INSTITUTE OF PHARMACY","code":"267","city":"kutch","state":"Gujarat","pincode":"370460"},{"":"","name":"NOBLE GROUP OF INSTITUTIONS","code":"269","city":"junagadh","state":"Gujarat","pincode":"362310"},{"":"","name":"SMT. C. R. GARDI SCHOOL OF PHARMACY FOR GIRLS","code":"281","city":"jamnagar","state":"Gujarat","pincode":"361162"},{"":"","name":"SMT. R. B. PATEL MAHILA PHARMACY COLLEGE, (ONLY FOR GIRLS)","code":"284","city":"rajkot","state":"Gujarat","pincode":"360050"},{"":"","name":"DR. SUBHASH TECHNICAL CAMPUS","code":"287","city":"junagadh","state":"Gujarat","pincode":"362001"},{"":"","name":"Marwadi Educations Foundations Group of Institution- Faculty of Architecture","code":"359","city":"rajkot","state":"Gujarat","pincode":"360003"},{"":"","name":"ATMIYA INSTITUTE OF PHARMACY FOR DIPLOMA STUDIES","code":"402","city":"rajkot","state":"Gujarat","pincode":"360005"},{"":"","name":"B. K. MODY GOVT.PHARMACY COLLEGE (DIPLOMA)","code":"403","city":"rajkot","state":"Gujarat","pincode":"360003"},{"":"","name":"JAMIAT ULAMA-I-HIND MANAGED DIPLOMA PHARMACY COLLEGE","code":"407","city":"kutch","state":"Gujarat","pincode":"370110"},{"":"","name":"SHREE MARUTI KELAVANI MANDAL DIPLOMA PHARMACY COLLEGE","code":"410","city":"rajkot","state":"Gujarat","pincode":"360040"},{"":"","name":"SMT. R. D. GARDI GOVT. DIPLOMA PHARMACY COLLEGE","code":"416","city":"surendranagar","state":"Gujarat","pincode":"382775"},{"":"","name":"TOLANI INSTITUTE OF PHARMACY","code":"417","city":"kutch","state":"Gujarat","pincode":"370205"},{"":"","name":"DR.SUBHASH PETHALJIBHAI CHAVDA AHIR KELVANI MANDAL'S GROUP OF INSTITUTION PHARMACY","code":"420","city":"junagadh","state":"Gujarat","pincode":"362001"},{"":"","name":"ATMIYA INSTITUTE OF TECHNOLOGY & SCIENCE","code":"502","city":"rajkot","state":"Gujarat","pincode":"360005"},{"":"","name":"B. H. GARDI COLLEGE OF ENGINEERING & TECHNOLOGY","code":"503","city":"rajkot","state":"Gujarat","pincode":"361162"},{"":"","name":"MARVADI EDUCATION GROUP OF FOUNDATION (INTEGRATED CAMPUS)","code":"522","city":"rajkot","state":"Gujarat","pincode":"360003"},{"":"","name":"R. K. COLLEGE OF BUSINESS MANAGEMENT","code":"526","city":"rajkot","state":"Gujarat","pincode":"360020"},{"":"","name":"R. K. COLLEGE OF ENGINEERING AND TECHNOLOGY","code":"527","city":"rajkot","state":"Gujarat","pincode":"360020"},{"":"","name":"SHRI BRAHAMANAND INSTITUTE OF COMPUTER SCIENCE","code":"534","city":"junagadh","state":"Gujarat","pincode":"362120"},{"":"","name":"SHRI JAYSHUKHLAL VADHAR INSTITUTE OF MANAGEMENT STUDIES (MCA)","code":"537","city":"jamnagar","state":"Gujarat","pincode":"361004"},{"":"","name":"SHRI SUNSHINE EDUCATION TRUST GROUP OF INSTITUTION (INTEGRATED CAMPUS)","code":"538","city":"rajkot","state":"Gujarat","pincode":"360005"},{"":"","name":"T. N. RAO COLLEGE OF INFORMATION TECHNOLOGY","code":"540","city":"rajkot","state":"Gujarat","pincode":"360005"},{"":"","name":"ATMIYA INSTITUTE OF TECHNOLOGY & SCIENCE WITH ENGG","code":"542","city":"rajkot","state":"Gujarat","pincode":"360006"},{"":"","name":"DR. BHARAT BARAD INSTITUTE OF MANAGEMENT & COMPUTER SCIENCE","code":"543","city":"junagadh","state":"Gujarat","pincode":"362275"},{"":"","name":"DR. SUBHASH TECHNICAL CAMPUS","code":"544","city":"junagadh","state":"Gujarat","pincode":"362001"},{"":"","name":"MURLIDHAR GROUP OF INSTITUTIONS","code":"547","city":"rajkot","state":"Gujarat","pincode":"360000"},{"":"","name":"SMT. VANITABEN BACHUBHAI NANDOLA MCA COLLEGE","code":"551","city":"junagadh","state":"Gujarat","pincode":"362560"},{"":"","name":"SHRI NARANDAS JETHALAL SONECHA MANAGEMENT & TECHNICAL INSTITUTE","code":"553","city":"junagadh","state":"Gujarat","pincode":"362266"},{"":"","name":"SMT. REWABEN O. PATEL WOMEN'S MCA COLLEGE","code":"557","city":"morbi","state":"Gujarat","pincode":"363650"},{"":"","name":"MARWADI EDUCATION FOUNDATION'S GROUP OF INSTITUTIONS(FACULTY OF COMPUTER APPLICATIONS) (SFI)-SECOND SHIFT -NEW","code":"558","city":"rajkot","state":"Gujarat","pincode":"360003"},{"":"","name":"B. H. GARDI COLLEGE OF ENGINEERING & TECHNOLOGY (SFI) - (SECOND SHIFT ) -NEW","code":"565","city":"rajkot","state":"Gujarat","pincode":"361162"},{"":"","name":"M.L Kakadiya Intitute Mahila college","code":"573","city":"amreli","state":"Gujarat","pincode":"365601"},{"":"","name":"A. V. PAREKH TECHNICAL INSTITUTE","code":"602","city":"rajkot","state":"Gujarat","pincode":"360005"},{"":"","name":"ATMIYA INSTITUTE OF TECHNOLOGY & SCIENCE FOR DIPLOMA STUDIES","code":"603","city":"rajkot","state":"Gujarat","pincode":"360005"},{"":"","name":"BHAGVAD GOPAL INSTITUTE OF TECHNOLOGY","code":"607","city":"rajkot","state":"Gujarat","pincode":"360311"},{"":"","name":"CHRIST POLYTECHNIC INSTITUTE","code":"610","city":"rajkot","state":"Gujarat","pincode":"360005"},{"":"","name":"DR. J. N. MEHTA GOVERNMENT POLYTECHNIC, AMRELI","code":"611","city":"amreli","state":"Gujarat","pincode":"365601"},{"":"","name":"GOVERNMENT POLYTECHNIC","code":"619","city":"junagadh","state":"Gujarat","pincode":"362001"},{"":"","name":"GOVERNMENT POLYTECHNIC","code":"620","city":"rajkot","state":"Gujarat","pincode":"360003"},{"":"","name":"GOVERNMENT POLYTECHNIC","code":"621","city":"bhuj","state":"Gujarat","pincode":"370001"},{"":"","name":"GOVERNMENT POLYTECHNIC","code":"625","city":"jamnagar","state":"Gujarat","pincode":"361001"},{"":"","name":"GOVERNMENT POLYTECHNIC","code":"627","city":"porbandar","state":"Gujarat","pincode":"360578"},{"":"","name":"LUKHDHIRJI ENGINEERING COLLEGE (DIPLOMA)","code":"634","city":"rajkot","state":"Gujarat","pincode":"363642"},{"":"","name":"TOLANI FOUNDATION GANDHIDHAM POLYTECHNIC","code":"651","city":"kutch","state":"Gujarat","pincode":"370205"},{"":"","name":"T. F. GANDHIDHAM POLYTECHNIC","code":"653","city":"kutch","state":"Gujarat","pincode":"391440"},{"":"","name":"VIVEKANAND INSTITUTE OF TECHNOLOGY","code":"657","city":"rajkot","state":"Gujarat","pincode":"360023"},{"":"","name":"DARSHAN INSTITUTE OF ENGINEERING & TECHNOLOGY FOR DIPLOMA STUDIES","code":"662","city":"rajkot","state":"Gujarat","pincode":"360005"},{"":"","name":"BALAJI INSTITUTE OF ENGINEERING & TECHNOLOGY","code":"663","city":"junagadh","state":"Gujarat","pincode":"362014"},{"":"","name":"OM INSTITUTE OF ENGINEERING & TECHNOLOGY","code":"665","city":"junagadh","state":"Gujarat","pincode":"362310"},{"":"","name":"Sanjaybhai Rajguru College  of Diploma Engineering","code":"672","city":"rajkot","state":"Gujarat","pincode":"360003"},{"":"","name":"R. K. COLLEGE OF DIPLOMA ENGINEERING","code":"673","city":"rajkot","state":"Gujarat","pincode":"360020"},{"":"","name":"AARSH MAHAVIDYALAYA","code":"674","city":"rajkot","state":"Gujarat","pincode":"360020"},{"":"","name":"J.J.C.E.TRUST SANCHALIT N.R.VEKARIA INSTITUTE OF TECHNOLOGY","code":"679","city":"junagadh","state":"Gujarat","pincode":"362001"},{"":"","name":"ARPIT INSTITUTE OF ENGINEERING & TECHNOLOGY (DIPLOMA)","code":"680","city":"rajkot","state":"Gujarat","pincode":"363650"},{"":"","name":"AMRUT INSTITUTE","code":"685","city":"junagadh","state":"Gujarat","pincode":"362266"},{"":"","name":"NOBLE GROUP OF INSTITUTIONS","code":"692","city":"junagadh","state":"Gujarat","pincode":"362310"},{"":"","name":"DR. SUBHASH TECHNICAL CAMPUS","code":"695","city":"junagadh","state":"Gujarat","pincode":"362001"},{"":"","name":"ARHAM VEERAYATAN INSTITUTE OF ENGINEERING, TECHNOLOGY & RESEARCH","code":"697","city":"kutch","state":"Gujarat","pincode":"370460"},{"":"","name":"ARUN MUCHHALA ENGINEERING COLLEGE","code":"699","city":"amreli","state":"Gujarat","pincode":"365640"},{"":"","name":"ATMIYA INSTITUTE OF TECHNOLOGY & SCIENCE","code":"703","city":"rajkot","state":"Gujarat","pincode":"360005"},{"":"","name":"EVA INSTITUTE OF MANAGEMENT, SUPEDI, DHORAJI","code":"712","city":"rajkot","state":"Gujarat","pincode":"360440"},{"":"","name":"K. K. PAREKH INSTITUTE OF MANAGEMENT STUDIES","code":"722","city":"amreli","state":"Gujarat","pincode":"365601"},{"":"","name":"K. N. V. INSTITUTE OF BUSINESS MANAGEMENT","code":"723","city":"rajkot","state":"Gujarat","pincode":"360021"},{"":"","name":"KNOWLEDGE GURUKUL INSTITUTE OF BUSINESS MANAGEMENT","code":"726","city":"rajkot","state":"Gujarat","pincode":"360021"},{"":"","name":"KUM. M.H. GARDI SCHOOL OF MANAGEMENT","code":"727","city":"rajkot","state":"Gujarat","pincode":"361162"},{"":"","name":"MARWADI EDUCATION FOUNDATION'S GROUP OF INSTITUTIONS","code":"734","city":"rajkot","state":"Gujarat","pincode":"360003"},{"":"","name":"N. R. VEKARIA INSTITUTE OF BUSINESS MANAGEMENT STUDIES","code":"736","city":"junagadh","state":"Gujarat","pincode":"362001"},{"":"","name":"NOBLE GROUP OF INSTITUTIONS","code":"738","city":"junagadh","state":"Gujarat","pincode":"362310"},{"":"","name":"OM SHANTI ENGINEERING COLLEGE","code":"740","city":"rajkot","state":"Gujarat","pincode":"360003"},{"":"","name":"OM VINDHYAVASINI INSTITUTE OF MANAGEMENT","code":"741","city":"rajkot","state":"Gujarat","pincode":"363641"},{"":"","name":"PATEL INSTITUTE OF MANAGEMENT","code":"743","city":"rajkot","state":"Gujarat","pincode":"363641"},{"":"","name":"R. K. COLLEGE OF BUSINESS MANAGEMENT","code":"744","city":"rajkot","state":"Gujarat","pincode":"360020"},{"":"","name":"R. K. COLLEGE OF ENGINEERING AND TECHNOLOGY","code":"745","city":"rajkot","state":"Gujarat","pincode":"360020"},{"":"","name":"S. P. PATEL MBA COLLEGE","code":"748","city":"junagadh","state":"Gujarat","pincode":"362001"},{"":"","name":"SHREE AUROBINDO INSTITUTE OF MANAGEMENT","code":"758","city":"rajkot","state":"Gujarat","pincode":"360005"},{"":"","name":"SHREE H. N. SHUKLA COLLEGE OF MANAGEMENT STUDIES","code":"759","city":"rajkot","state":"Gujarat","pincode":"360002"},{"":"","name":"SMT. SHANTABEN HARIBHAI GAJERA MBA MAHILA COLLEGE","code":"760","city":"amreli","state":"Gujarat","pincode":"365601"},{"":"","name":"SHREE SARDAR PATEL KELVANI MANDAL  JETPUR MANAGED MBA COLLEGE","code":"763","city":"jetpur","state":"Gujarat","pincode":"360370"},{"":"","name":"GEETANJALI INSTITUTE OF MANAGEMENT STUDIES","code":"766","city":"rajkot","state":"Gujarat","pincode":"363650"},{"":"","name":"SHRI BRAHAMANAND INSTITUTE OF MANAGEMENT (BIM)","code":"767","city":"junagadh","state":"Gujarat","pincode":"362120"},{"":"","name":"SHRI JAYSUKHLAL VADHAR INSTITUTE OF MANAGEMENT STUDIES","code":"770","city":"jamnagar","state":"Gujarat","pincode":"361004"},{"":"","name":"SHRI MAHARSHI DAYANAND SARASWATI MBA COLLEGE","code":"772","city":"rajkot","state":"Gujarat","pincode":"363650"},{"":"","name":"SHRI SUNSHINE EDUCATION TRUST GROUP OF INSTITUTION","code":"773","city":"rajkot","state":"Gujarat","pincode":"360005"},{"":"","name":"SMT. VANITABEN BACHUBHAI MANDOLA MBA COLLEGE","code":"777","city":"junagadh","state":"Gujarat","pincode":"360060"},{"":"","name":"SHRI H. D. GARDI M.B.A. COLLEGE","code":"780","city":"rajkot","state":"Gujarat","pincode":"360110"},{"":"","name":"SRK INSTITUTE OF MANAGEMENT AND COMPUTER EDUCATION","code":"781","city":"kutch","state":"Gujarat","pincode":"370110"},{"":"","name":"SWAMI GHANSHYAM JIVANDASJI MBA COLLEGE","code":"782","city":"kutch","state":"Gujarat","pincode":"370460"},{"":"","name":"T. N. RAO COLLEGE OF MANAGEMENT STUDIES","code":"784","city":"rajkot","state":"Gujarat","pincode":"360005"},{"":"","name":"ATMIYA INSTITUTE OF TECHNOLOGY & SCIENCE-(ENGINEERING)","code":"787","city":"rajkot","state":"Gujarat","pincode":"360006"},{"":"","name":"C. C. GARDI INSTITUTE OF MANAGEMENT","code":"788","city":"rajkot","state":"Gujarat","pincode":"361162"},{"":"","name":"CHRIST INSTITUTE OF MANAGEMENT","code":"789","city":"rajkot","state":"Gujarat","pincode":"360005"},{"":"","name":"DR. BHARAT BARAD INSTITUTE OF MANAGEMENT & COMPUTER SCIENCE","code":"791","city":"junagadh","state":"Gujarat","pincode":"362275"},{"":"","name":"DR. SUBHAHSH PETHALJIBHAI CHAVDA AHIR KELVANI MANDAL'S GROUP OF INSTITUTIONS","code":"793","city":"junagadh","state":"Gujarat","pincode":"362001"},{"":"","name":"M. H. GARDI SCHOOL OF MANAGEMENT, SECOND SHIFT","code":"797","city":"rajkot","state":"Gujarat","pincode":"384120"},{"":"","name":"MURLIDHAR GROUP OF INSTITUTIONS","code":"798","city":"rajkot","state":"Gujarat","pincode":"360025"},{"":"","name":"PARAM INSTITUTE OF MANAGEMENT & RESEARCH","code":"801","city":"jamnagar","state":"Gujarat","pincode":"361006"},{"":"","name":"SHREE SWAMINARAYAN INSTITUTE OF MANAGEMENT & I.T.","code":"810","city":"porbandar","state":"Gujarat","pincode":"360578"},{"":"","name":"SMT. SARALABEN VASANTBHAI MALAVIYA SCHOOL OF MANAGEMENT","code":"811","city":"rajkot","state":"Gujarat","pincode":"360004"},{"":"","name":"VEERAYATAN GROUP OF INSTITUTIONS FACULTY OF ENGINEERING ,FACULTY OF MANAGEMENT (INTEGRATED CAMPUS)","code":"815","city":"kutch","state":"Gujarat","pincode":"383001"},{"":"","name":"SHRI NARANDAS JETHALAL SONECHA MANAGEMENT & TECHNICAL INSTITUTE","code":"817","city":"junagadh","state":"Gujarat","pincode":"362266"},{"":"","name":"ATMIYA INSTITUTE OF TECHNOLOGY & SCIENCE  (SFI)(SECOND SHIFT) -NEW","code":"824","city":"rajkot","state":"Gujarat","pincode":"360005"},{"":"","name":"MARWADI EDUCATION FOUNDATIONS GROUP OF INSTITUTIONS (SECOND SHIFT) -FACULTY OF MANAGEMENT -(SFI)- NEW","code":"826","city":"rajkot","state":"Gujarat","pincode":"360003"},{"":"","name":"MARWADI EDUCATION FOUNDATIONS GROUP OF INSTITUTIONS  -FACULTY OF BUSINESS MANAGEMENT -(SFI) NEW","code":"827","city":"rajkot","state":"Gujarat","pincode":"360003"},{"":"","name":"MARWADI EDUCATION FOUNDATIONS GROUP OF INSTITUTIONS (SECOND SHIFT) -FACULTY OF BUSINESS MANAGEMENT -(SFI) NEW","code":"828","city":"rajkot","state":"Gujarat","pincode":"360003"},{"":"","name":"SHRI LABHUBHAI TRIVEDI INSTITUTE OF ENGINEERING AND TECHNOLOGY","code":"954","city":"rajkot","state":"Gujarat","pincode":"360005"},{"":"","name":"TAKSHSHILA COLLEGE OF ENGG. & TECH.","code":"961","city":"rajkot","state":"Gujarat","pincode":"360001"},{"":"","name":"HJD INSTITUTE OF TECHNICAL EDUCATION AND RESERCH","code":"968","city":"kutch","state":"Gujarat","pincode":"370430"},{"":"","name":"RADHE INSTITUTE OF ENGINEERING & TECHNOLOGY","code":"970","city":"rajkot","state":"Gujarat","pincode":"360490"},{"":"","name":"SURAJ MUCHHALA POLYTECHNIC","code":"977","city":"rajkot","state":"Gujarat","pincode":"360311"},{"":"","name":"ASIATIC INSTITUTE OF SCIENCE & TECHNOLOGY","code":"978","city":"rajkot","state":"Gujarat","pincode":"360311"},{"":"","name":"SHRI H. N. SHUKLA DIPLOMA ENGINEERING COLLEGE,","code":"980","city":"amargadh","state":"Gujarat","pincode":"360003"},{"":"","name":"KALYAN POLYTECHNIC","code":"983","city":"jamnagar","state":"Gujarat","pincode":"361120"},{"":"","name":"Bhavnagar Polytechnic Institute (Diploma)","code":"985","city":"bhavnagar","state":"Gujarat","pincode":"364240"},{"":"","name":"GOVERNMENT POLYTECHNIC","code":"988","city":"diu","state":"Gujarat","pincode":"362520"},{"":"","name":"Krishna Institute of Engineering & Technology","code":"989","city":"jamnagar","state":"Gujarat","pincode":"361120"},{"":"","name":"ARHAM VEERAYATAN POLYTECHNIC INSTITUTE","code":"990","city":"kutch","state":"Gujarat","pincode":"370460"},{"":"","name":"KANKESHWARIDEVI INSTITUTE OF TECHNOLOGY","code":"991","city":"jamnagar","state":"Gujarat","pincode":"361012"},{"":"","name":"BHAGWAN MAHAVIR COLLEGE OF ENGINEERING & TECHNOLOGY","code":"006","city":"surat","state":"Gujarat","pincode":"395017"},{"":"","name":"C. K. PITHAWALLA COLLEGE OF ENGINEERING & TECHNOLOGY","code":"009","city":"surat","state":"Gujarat","pincode":"395007"},{"":"","name":"GOVERNMENT ENGINEERING COLLEGE","code":"014","city":"bharuch","state":"Gujarat","pincode":"392002"},{"":"","name":"GOVERNMENT ENGINEERING COLLEGE","code":"019","city":"valsad","state":"Gujarat","pincode":"396001"},{"":"","name":"GOVERNMENT ENGINEERING COLLEGE","code":"023","city":"surat","state":"Gujarat","pincode":"395001"},{"":"","name":"MAHATMA GANDHI INSTITUTE OF TECHNICAL EDUCATION & RESEARCH CENTRE","code":"033","city":"navsari","state":"Gujarat","pincode":"396450"},{"":"","name":"SARVAJANIK COLLEGE OF ENGINEERING & TECHNOLOGY","code":"042","city":"surat","state":"Gujarat","pincode":"395001"},{"":"","name":"SHRI S'AD VIDYA MANDAL INSTITUTE OF TECHNOLOGY","code":"045","city":"bharuch","state":"Gujarat","pincode":"392001"},{"":"","name":"VALIA INSTITUTE OF TECHNOLOGY,VALIA","code":"048","city":"bharuch","state":"Gujarat","pincode":"393135"},{"":"","name":"VIDYABHARTI TRUST, INSTITUTE OF TECHNOLOGY & RESEARCH CENTRE","code":"049","city":"surat","state":"Gujarat","pincode":"394345"},{"":"","name":"CHHOTUBHAI GOPALBHAI PATEL INSTITUTE OF TECHNOLOGY","code":"053","city":"surat","state":"Gujarat","pincode":"394350"},{"":"","name":"SHRI SWAMI ATMANAND SARASWATI INSTITUTE OF TECHNOLOGY","code":"076","city":"surat","state":"Gujarat","pincode":"395005"},{"":"","name":"FACULTY OF ENGINEERING ,TECHNOLOGY AND RESEARCH. BARDOLI","code":"084","city":"surat","state":"Gujarat","pincode":"394620"},{"":"","name":"LAXMI INSTITUTE OF TECHNOLOGY","code":"086","city":"valsad","state":"Gujarat","pincode":"396155"},{"":"","name":"VIDHYADEEP INSTITUTE OF MANAGEMENT & TECHNOLOGY","code":"094","city":"surat","state":"Gujarat","pincode":"394540"},{"":"","name":"SHROFF S R ROTARY INSTITUTE OF CHEMICAL TECHNOLOGY","code":"099","city":"bharuch","state":"Gujarat","pincode":"393135"},{"":"","name":"GIDC DEGREE ENGINEERING COLLEGE","code":"110","city":"navsari","state":"Gujarat","pincode":"396406"},{"":"","name":"MAHAVIR SWAMI COLLEGE OF ENGINEERING & TECHNOLOGY","code":"111","city":"surat","state":"Gujarat","pincode":"395017"},{"":"","name":"PACIFIC SCHOOL OF ENGINEERING","code":"112","city":"surat","state":"Gujarat","pincode":"394305"},{"":"","name":"S.S.AGRAWAL INSTITUTE OF ENGINEERING & TECHNOLOGY","code":"123","city":"navsari","state":"Gujarat","pincode":"396445"},{"":"","name":"BHAGWAN MAHAVIR COLLEGE OF PHARMACY","code":"215","city":"surat","state":"Gujarat","pincode":"395017"},{"":"","name":"C. K. PITHAWALLA INSTITUTE OF PHARMACETICAL SCIENCE RESEARCH","code":"216","city":"surat","state":"Gujarat","pincode":"395007"},{"":"","name":"MALIBA PHARMACY COLLEGE","code":"230","city":"surat","state":"Gujarat","pincode":"394350"},{"":"","name":"ROFEL, SHRI G. M. BILAKHIA COLLEGE OF PHARMACY","code":"239","city":"vapi","state":"Gujarat","pincode":"396191"},{"":"","name":"SHREE DHANVANTARY PHARMACY COLLEGE","code":"254","city":"surat","state":"Gujarat","pincode":"394110"},{"":"","name":"SMT. B.N.B SWAMINARAYAN PHARMACY COLLEGE","code":"265","city":"vapi","state":"Gujarat","pincode":"396191"},{"":"","name":"SHREE NARANJIBHAI LALBHAI PATEL COLLEGE OF PHARMACY","code":"268","city":"surat","state":"Gujarat","pincode":"394345"},{"":"","name":"LAXMINARAYAN DEV COLLEGE OF PHARMACY","code":"274","city":"bharuch","state":"Gujarat","pincode":"392015"},{"":"","name":"VIDYADEEP COLLEGE OF PHARMACY","code":"285","city":"surat","state":"Gujarat","pincode":"394110"},{"":"","name":"BAGWAN MAHAVIR COLLEGE OF ARCHITECTURE","code":"353","city":"surat","state":"Gujarat","pincode":"395017"},{"":"","name":"LAXMI INSITTUE OF ARCHITECTURE","code":"355","city":"valsad","state":"Gujarat","pincode":"396155"},{"":"","name":"BAGWAN MAHAVIR COLLEGE OF ARCHITECTURE & PLANNING","code":"383","city":"surat","state":"Gujarat","pincode":"395007"},{"":"","name":"SHREE DHANVANTARY PHARMACY COLLEGE","code":"404","city":"surat","state":"Gujarat","pincode":"394110"},{"":"","name":"DR. DAYARAM PATEL PHARMACY COLLEGE","code":"406","city":"surat","state":"Gujarat","pincode":"394601"},{"":"","name":"BHAGWAN MAHAVIR COLLEGE OF COMPUTER APPLICATION","code":"504","city":"surat","state":"Gujarat","pincode":"395017"},{"":"","name":"LAXMI INSTITUTE OF COMPUTER APPLICATIONS","code":"520","city":"valsad","state":"Gujarat","pincode":"396155"},{"":"","name":"NARMADA COLLEGE OF COMPUTER APPLICATION","code":"523","city":"bharuch","state":"Gujarat","pincode":"392011"},{"":"","name":"SARVAJANIK COLLEGE OF ENGINEERING TECHNOLOGY (SCET)","code":"531","city":"surat","state":"Gujarat","pincode":"395001"},{"":"","name":"SHRIMAD RAJCHANDRA INST. OF MANAGEMENT AND COMPUTER APPLICATION (SRIMCA)","code":"539","city":"surat","state":"Gujarat","pincode":"394350"},{"":"","name":"S.S. AGRAWAL INSTITUTE OF COMPUTER SCIENCE","code":"554","city":"navsari","state":"Gujarat","pincode":"396445"},{"":"","name":"BHAGWAN MAHAVIR COLLEGE OF MANAGEMENT","code":"559","city":"surat","state":"Gujarat","pincode":"395017"},{"":"","name":"THE MANDVI EDUCATION SOCIETY INSTITUTE OF COMPUTER STUDIES","code":"563","city":"surat","state":"Gujarat","pincode":"394160"},{"":"","name":"SHREE LAXMINARAYAN DEV COLLEGE OF COMPUTER APPLICATIONS","code":"564","city":"bharuch","state":"Gujarat","pincode":"392015"},{"":"","name":"SHRINATHJI INSTITUTE OF TECHNOLOGY","code":"576","city":"daman","state":"Gujarat","pincode":"396210"},{"":"","name":"A. Y. DADABHAI TECHNICAL INSTITUTE","code":"601","city":"kosamba","state":"Gujarat","pincode":"394120"},{"":"","name":"BHAGWAN MAHAVIR COLLEGE OF POLYTECHNIC","code":"608","city":"surat","state":"Gujarat","pincode":"395017"},{"":"","name":"DR. S. & S. S. GHANDHY COLLEGE OF ENGINEERING & TECHNOLOGY","code":"612","city":"surat","state":"Gujarat","pincode":"395001"},{"":"","name":"GOVERNMENT POLYTECHNIC FOR GIRLS","code":"615","city":"surat","state":"Gujarat","pincode":"395001"},{"":"","name":"GOVERNMENT POLYTECHNIC WAGHAI","code":"616","city":"dang","state":"Gujarat","pincode":"394730"},{"":"","name":"GOVERNMENT POLYTECHNIC","code":"629","city":"valsad","state":"Gujarat","pincode":"396001"},{"":"","name":"N. G. PATEL POLYTECHNIC","code":"637","city":"surat","state":"Gujarat","pincode":"394620"},{"":"","name":"SHRI K. J. POLYTECHNIC","code":"645","city":"bharuch","state":"Gujarat","pincode":"392001"},{"":"","name":"S.T.B.S. COLLEGE OF DIPLOMA ENGINEERING","code":"647","city":"surat","state":"Gujarat","pincode":"395006"},{"":"","name":"VALLABH BUDHI POLYTECHNIC","code":"655","city":"navsari","state":"Gujarat","pincode":"396445"},{"":"","name":"Bhulabhai Vanmalibhai Patel Institute of Technology(DIploma  Studies)","code":"656","city":"surat","state":"Gujarat","pincode":"394345"},{"":"","name":"GOVERNMENT POLYTECHNIC, DAMAN","code":"658","city":"daman","state":"Gujarat","pincode":"396210"},{"":"","name":"DR. B. B. A. GOVERNMENT POLYTECHNIC","code":"659","city":"karad","state":"Gujarat","pincode":"396240"},{"":"","name":"JAYVANTRAI HARRAI DESAI POLYTECHNIC","code":"686","city":"surat","state":"Gujarat","pincode":"394315"},{"":"","name":"VALIA POLYTECHNIC COLLEGE","code":"688","city":"bharuch","state":"Gujarat","pincode":"393001"},{"":"","name":"LAXMI INSTITUTE OF TECHNOLOGY","code":"691","city":"valsad","state":"Gujarat","pincode":"396001"},{"":"","name":"BHAGWAN MAHAVIR COLLEGE OF MANAGEMENT","code":"704","city":"surat","state":"Gujarat","pincode":"395017"},{"":"","name":"C. K. PITHAWALLA INSTITUTE OF MANAGEMENT","code":"706","city":"surat","state":"Gujarat","pincode":"395007"},{"":"","name":"GIDC RAJJU SHROFF ROFEL INSTITUTE OF MANAGEMENT STUDIES","code":"716","city":"vapi","state":"Gujarat","pincode":"396195"},{"":"","name":"LAXMI INSTITUTE OF MANAGEMENT SARIGAM","code":"731","city":"valsad","state":"Gujarat","pincode":"396155"},{"":"","name":"NARMADA COLLEGE OF MANAGEMENT","code":"737","city":"bharuch","state":"Gujarat","pincode":"392011"},{"":"","name":"S. R. LUTHRA INSTITUTE OF MANAGEMENT","code":"750","city":"surat","state":"Gujarat","pincode":"395001"},{"":"","name":"SHRI M.H.KADAKIA INSTITUTE OF MANAGEMENT AND COMPUTER STUDIES","code":"771","city":"vadodara","state":"Gujarat","pincode":"390007"},{"":"","name":"SHRIMAD RAJCHANDRA INST. OF MANAGEMENT AND COMPUTER APPLICATION","code":"774","city":"surat","state":"Gujarat","pincode":"394350"},{"":"","name":"NARAN LALA SCHOOL OF INDUSTRIAL MANAGEMENT & COMPUTER SCIENCE","code":"799","city":"navsari","state":"Gujarat","pincode":"396445"},{"":"","name":"S. R. LUTHRA INSTITUTE OF MANAGEMENT -SECOND SHIFT","code":"805","city":"surat","state":"Gujarat","pincode":"395001"},{"":"","name":"S. S. AGRAWAL INSTITUTE OF MANAGEMENT & TECHNOLOGY","code":"806","city":"navsari","state":"Gujarat","pincode":"396445"},{"":"","name":"SHREE R. R. TANTI INSTITUTE OF MANAGEMENT","code":"809","city":"bharuch","state":"Gujarat","pincode":"393002"},{"":"","name":"THE MANDVI EDUCATION SOCIETY INSTITUTE OF BUSINESS MANAGEMENT AND COMPUTER STUDIES","code":"812","city":"surat","state":"Gujarat","pincode":"394160"},{"":"","name":"SHRI SITARAMBHAI NARANJI PATEL INSTITUTE OF TECHNOLOGY,MANAGED BY VIDYABHARTI TRUST","code":"814","city":"surat","state":"Gujarat","pincode":"394345"},{"":"","name":"DR.D.Y.PATIL INSTITUTE OF MANAGEMENT","code":"821","city":"bharuch","state":"Gujarat","pincode":"392001"},{"":"","name":"BHAGWAN MAHAVIR COLLEGE OF MANAGEMENT (MBA)(SFI)","code":"823","city":"surat","state":"Gujarat","pincode":"395017"},{"":"","name":"MAHAVIR SWAMI COLLEGE OF POLYTECHNIC","code":"955","city":"surat","state":"Gujarat","pincode":"395017"},{"":"","name":"VIDHYADEEP INSTITUTE OF MANAGEMENT & TECHNOLOGY","code":"963","city":"surat","state":"Gujarat","pincode":"394110"},{"":"","name":"GOVT. POLYTECHNIC ,","code":"973","city":"bharuch","state":"Gujarat","pincode":"392012"},{"":"","name":"GOVT. POLYTECHNIC , VYARA","code":"974","city":"vyara","state":"Gujarat","pincode":"394651"},{"":"","name":"GOVT. POLYTECHNIC,NAVSARI","code":"975","city":"navsari","state":"Gujarat","pincode":"396445"},{"":"","name":"PACIFIC SCHOOL OF ENGINEERING","code":"976","city":"surat","state":"Gujarat","pincode":"394305"},{"":"","name":"SHREE DHANVANTARY COLLEGE OF DIPLOMA ENGINEERING,","code":"981","city":"surat","state":"Gujarat","pincode":"394110"},{"":"","name":"Shree Swaminarayan Diploma Engg. College","code":"987","city":"narmada","state":"Gujarat","pincode":"393151"}]